QIANFAN-73              
1 63159U 25046A   25211.88133836  .00000134  00000+0  18819-3 0  9999
2 63159  88.9858 333.9176 0016285 148.6025 211.6102 13.50957954 29206
QIANFAN-74              
1 63160U 25046B   25211.86494004  .00000148  00000+0  21013-3 0  9991
2 63160  88.9858 333.8079 0001970 101.6113 258.5260 13.50962489 29261
QIANFAN-75              
1 63161U 25046C   25212.22292772  .00000147  00000+0  20841-3 0  9998
2 63161  88.9859 334.0028 0017418 150.8751 209.3375 13.50958978 29188
QIANFAN-76              
1 63162U 25046D   25212.21863569  .00000172  00000+0  24802-3 0  9995
2 63162  88.9858 333.9845 0014983 150.6888 209.5107 13.50954986 29197
QIANFAN-77              
1 63163U 25046E   25211.86519200  .00000341  00000+0  23891-3 0  9991
2 63163  88.9856 333.1332 0016492 136.8417 223.4055 13.96004022 29633
QIANFAN-78              
1 63164U 25046F   25212.18585841  .00000163  00000+0  23392-3 0  9990
2 63164  88.9857 333.8533 0016283 153.4103 206.7886 13.50958354 29261
QIANFAN-79              
1 63165U 25046G   25212.21458179  .00000162  00000+0  23137-3 0  9994
2 63165  88.9861 333.9526 0016012 151.6887 208.5138 13.50960441 29225
QIANFAN-80              
1 63166U 25046H   25212.23115483  .00000136  00000+0  19242-3 0  9998
2 63166  88.9859 333.6616 0014894 155.2217 204.9652 13.50960739 29370
